<?xml version="1.0" encoding="UTF-8"?>
<kml xmlns="http://www.opengis.net/kml/2.2">
<Document>
<Placemark>
<name>Vuelo ECJGM</name>
<LineString>
<coordinates>
-73.74138888888889,45.46805555555556,0
2.085,41.2971,0
</coordinates>
</LineString>
</Placemark>
<Placemark>
<name>Vuelo ECLOB</name>
<LineString>
<coordinates>
-79.63055555555555,43.67722222222222,0
2.085,41.2971,0
</coordinates>
</LineString>
</Placemark>
<Placemark>
<name>Vuelo ECLVC</name>
<LineString>
<coordinates>
3.2144444444444447,36.693888888888885,0
2.085,41.2971,0
</coordinates>
</LineString>
</Placemark>
<Placemark>
<name>Vuelo DALEC</name>
<LineString>
<coordinates>
10.226944444444445,36.85111111111111,0
2.085,41.2971,0
</coordinates>
</LineString>
</Placemark>
<Placemark>
<name>Vuelo GEZWE</name>
<LineString>
<coordinates>
-6.215833333333333,54.6575,0
2.085,41.2971,0
</coordinates>
</LineString>
</Placemark>
<Placemark>
<name>Vuelo EIFOG</name>
<LineString>
<coordinates>
-1.7480555555555557,52.45388888888889,0
2.085,41.2971,0
</coordinates>
</LineString>
</Placemark>
<Placemark>
<name>Vuelo DAIQE</name>
<LineString>
<coordinates>
-2.275,53.35388888888889,0
2.085,41.2971,0
</coordinates>
</LineString>
</Placemark>
<Placemark>
<name>Vuelo OOJEM</name>
<LineString>
<coordinates>
-3.3433333333333333,51.39666666666667,0
2.085,41.2971,0
</coordinates>
</LineString>
</Placemark>
<Placemark>
<name>Vuelo ECLZZ</name>
<LineString>
<coordinates>
-2.7191666666666667,51.382777777777775,0
2.085,41.2971,0
</coordinates>
</LineString>
</Placemark>
<Placemark>
<name>Vuelo HALXH</name>
<LineString>
<coordinates>
-2.8497222222222223,53.33361111111111,0
2.085,41.2971,0
</coordinates>
</LineString>
</Placemark>
<Placemark>
<name>Vuelo GEZAT</name>
<LineString>
<coordinates>
-0.3683333333333333,51.874722222222225,0
2.085,41.2971,0
</coordinates>
</LineString>
</Placemark>
<Placemark>
<name>Vuelo ECMBS</name>
<LineString>
<coordinates>
-1.3566666666666667,50.95027777777778,0
2.085,41.2971,0
</coordinates>
</LineString>
</Placemark>
<Placemark>
<name>Vuelo ECJYX</name>
<LineString>
<coordinates>
-0.19027777777777777,51.14805555555556,0
2.085,41.2971,0
</coordinates>
</LineString>
</Placemark>
<Placemark>
<name>Vuelo DAEBP</name>
<LineString>
<coordinates>
-0.4613888888888889,51.4775,0
2.085,41.2971,0
</coordinates>
</LineString>
</Placemark>
<Placemark>
<name>Vuelo OOSSW</name>
<LineString>
<coordinates>
0.6933333333333334,51.57027777777778,0
2.085,41.2971,0
</coordinates>
</LineString>
</Placemark>
<Placemark>
<name>Vuelo VQBTN</name>
<LineString>
<coordinates>
-1.6608333333333332,53.86611111111111,0
2.085,41.2971,0
</coordinates>
</LineString>
</Placemark>
<Placemark>
<name>Vuelo OHLZD</name>
<LineString>
<coordinates>
-1.6897222222222223,55.03805555555555,0
2.085,41.2971,0
</coordinates>
</LineString>
</Placemark>
<Placemark>
<name>Vuelo DABZA</name>
<LineString>
<coordinates>
-1.3277777777777777,52.83111111111111,0
2.085,41.2971,0
</coordinates>
</LineString>
</Placemark>
<Placemark>
<name>Vuelo N823NW</name>
<LineString>
<coordinates>
-3.3725,55.95,0
2.085,41.2971,0
</coordinates>
</LineString>
</Placemark>
<Placemark>
<name>Vuelo ECMAH</name>
<LineString>
<coordinates>
-4.594444444444444,55.50944444444445,0
2.085,41.2971,0
</coordinates>
</LineString>
</Placemark>
<Placemark>
<name>Vuelo EIENM</name>
<LineString>
<coordinates>
0.23500000000000001,51.885,0
2.085,41.2971,0
</coordinates>
</LineString>
</Placemark>
<Placemark>
<name>Vuelo ECMEA</name>
<LineString>
<coordinates>
-6.27,53.421388888888885,0
2.085,41.2971,0
</coordinates>
</LineString>
</Placemark>
<Placemark>
<name>Vuelo OELBR</name>
<LineString>
<coordinates>
12.278333333333334,53.91916666666666,0
2.085,41.2971,0
</coordinates>
</LineString>
</Placemark>
<Placemark>
<name>Vuelo ECMFM</name>
<LineString>
<coordinates>
-13.863888888888889,28.452777777777776,0
2.085,41.2971,0
</coordinates>
</LineString>
</Placemark>
<Placemark>
<name>Vuelo 9VSWD</name>
<LineString>
<coordinates>
-15.386666666666667,27.931944444444447,0
2.085,41.2971,0
</coordinates>
</LineString>
</Placemark>
<Placemark>
<name>Vuelo FGTAZ</name>
<LineString>
<coordinates>
-13.605277777777777,28.945555555555554,0
2.085,41.2971,0
</coordinates>
</LineString>
</Placemark>
<Placemark>
<name>Vuelo OYKBP</name>
<LineString>
<coordinates>
-16.341666666666665,28.482777777777777,0
2.085,41.2971,0
</coordinates>
</LineString>
</Placemark>
<Placemark>
<name>Vuelo ECMHA</name>
<LineString>
<coordinates>
-4.977777777777778,33.92722222222222,0
2.085,41.2971,0
</coordinates>
</LineString>
</Placemark>
<Placemark>
<name>Vuelo DAGWI</name>
<LineString>
<coordinates>
-7.581666666666666,33.36416666666667,0
2.085,41.2971,0
</coordinates>
</LineString>
</Placemark>
<Placemark>
<name>Vuelo ECLLJ</name>
<LineString>
<coordinates>
-8.040833333333333,31.608611111111113,0
2.085,41.2971,0
</coordinates>
</LineString>
</Placemark>
<Placemark>
<name>Vuelo ECMKV</name>
<LineString>
<coordinates>
-5.921111111111111,35.73166666666667,0
2.085,41.2971,0
</coordinates>
</LineString>
</Placemark>
<Placemark>
<name>Vuelo DAIDL</name>
<LineString>
<coordinates>
31.413888888888888,30.11138888888889,0
2.085,41.2971,0
</coordinates>
</LineString>
</Placemark>
<Placemark>
<name>Vuelo ECJTR</name>
<LineString>
<coordinates>
39.20333333333333,-6.875555555555556,0
2.085,41.2971,0
</coordinates>
</LineString>
</Placemark>
<Placemark>
<name>Vuelo EIFRF</name>
<LineString>
<coordinates>
-84.43333333333334,33.63333333333333,0
2.085,41.2971,0
</coordinates>
</LineString>
</Placemark>
<Placemark>
<name>Vuelo GZBAI</name>
<LineString>
<coordinates>
-80.95,35.21666666666667,0
2.085,41.2971,0
</coordinates>
</LineString>
</Placemark>
<Placemark>
<name>Vuelo TCJNZ</name>
<LineString>
<coordinates>
-74.16833333333334,40.696666666666665,0
2.085,41.2971,0
</coordinates>
</LineString>
</Placemark>
<Placemark>
<name>Vuelo GEZDU</name>
<LineString>
<coordinates>
-77.45666666666666,38.94499999999999,0
2.085,41.2971,0
</coordinates>
</LineString>
</Placemark>
<Placemark>
<name>Vuelo B5913</name>
<LineString>
<coordinates>
-73.77833333333334,40.640277777777776,0
2.085,41.2971,0
</coordinates>
</LineString>
</Placemark>
<Placemark>
<name>Vuelo OELED</name>
<LineString>
<coordinates>
-80.28333333333333,25.8,0
2.085,41.2971,0
</coordinates>
</LineString>
</Placemark>
<Placemark>
<name>Vuelo GZBAH</name>
<LineString>
<coordinates>
-75.245,39.87,0
2.085,41.2971,0
</coordinates>
</LineString>
</Placemark>
<Placemark>
<name>Vuelo ECMHS</name>
<LineString>
<coordinates>
-87.86833333333333,42.42166666666667,0
2.085,41.2971,0
</coordinates>
</LineString>
</Placemark>
<Placemark>
<name>Vuelo ECLML</name>
<LineString>
<coordinates>
23.40833333333333,42.69499999999999,0
2.085,41.2971,0
</coordinates>
</LineString>
</Placemark>
<Placemark>
<name>Vuelo GEZTG</name>
<LineString>
<coordinates>
18.26833333333333,42.561388888888885,0
2.085,41.2971,0
</coordinates>
</LineString>
</Placemark>
<Placemark>
<name>Vuelo CSTTO</name>
<LineString>
<coordinates>
16.298055555555557,43.538888888888884,0
2.085,41.2971,0
</coordinates>
</LineString>
</Placemark>
<Placemark>
<name>Vuelo GEZUM</name>
<LineString>
<coordinates>
16.06888888888889,45.74305555555556,0
2.085,41.2971,0
</coordinates>
</LineString>
</Placemark>
<Placemark>
<name>Vuelo ECLQK</name>
<LineString>
<coordinates>
34.885555555555555,32.00944444444445,0
2.085,41.2971,0
</coordinates>
</LineString>
</Placemark>
<Placemark>
<name>Vuelo ECLQL</name>
<LineString>
<coordinates>
23.692222222222224,46.78916666666667,0
2.085,41.2971,0
</coordinates>
</LineString>
</Placemark>
<Placemark>
<name>Vuelo FF333</name>
<LineString>
<coordinates>
26.084999999999997,44.571111111111115,0
2.085,41.2971,0
</coordinates>
</LineString>
</Placemark>
<Placemark>
<name>Vuelo N803NW</name>
<LineString>
<coordinates>
28.81416666666667,40.976111111111116,0
2.085,41.2971,0
</coordinates>
</LineString>
</Placemark>
<Placemark>
<name>Vuelo GEUYC</name>
<LineString>
<coordinates>
29.309166666666666,40.89833333333333,0
2.085,41.2971,0
</coordinates>
</LineString>
</Placemark>
<Placemark>
<name>Vuelo N283AY</name>
<LineString>
<coordinates>
28.930833333333336,46.92777777777778,0
2.085,41.2971,0
</coordinates>
</LineString>
</Placemark>
<Placemark>
<name>Vuelo ECMGF</name>
<LineString>
<coordinates>
21.62138888888889,41.961666666666666,0
2.085,41.2971,0
</coordinates>
</LineString>
</Placemark>
<Placemark>
<name>Vuelo ECMLD</name>
<LineString>
<coordinates>
20.306944444444444,44.81944444444445,0
2.085,41.2971,0
</coordinates>
</LineString>
</Placemark>
<Placemark>
<name>Vuelo EIIMU</name>
<LineString>
<coordinates>
18.723333333333333,42.40472222222222,0
2.085,41.2971,0
</coordinates>
</LineString>
</Placemark>
<Placemark>
<name>Vuelo ECHUI</name>
<LineString>
<coordinates>
35.49,33.81916666666667,0
2.085,41.2971,0
</coordinates>
</LineString>
</Placemark>
<Placemark>
<name>Vuelo ECLRN</name>
<LineString>
<coordinates>
54.65,24.433333333333334,0
2.085,41.2971,0
</coordinates>
</LineString>
</Placemark>
<Placemark>
<name>Vuelo GEZWZ</name>
<LineString>
<coordinates>
55.36,25.249166666666667,0
2.085,41.2971,0
</coordinates>
</LineString>
</Placemark>
<Placemark>
<name>Vuelo CSTTV</name>
<LineString>
<coordinates>
51.608333333333334,25.274444444444445,0
2.085,41.2971,0
</coordinates>
</LineString>
</Placemark>
<Placemark>
<name>Vuelo PHBXP</name>
<LineString>
<coordinates>
-58.53583333333333,-34.82222222222222,0
2.085,41.2971,0
</coordinates>
</LineString>
</Placemark>
<Placemark>
<name>Vuelo ECJGM</name>
<LineString>
<coordinates>
-46.47,-23.433333333333334,0
2.085,41.2971,0
</coordinates>
</LineString>
</Placemark>
<Placemark>
<name>Vuelo CFDAT</name>
<LineString>
<coordinates>
-74.15,4.7,0
2.085,41.2971,0
</coordinates>
</LineString>
</Placemark>
<Placemark>
<name>Vuelo EIDHG</name>
<LineString>
<coordinates>
30.893333333333334,50.344722222222224,0
2.085,41.2971,0
</coordinates>
</LineString>
</Placemark>
<Placemark>
<name>Vuelo EIFJP</name>
<LineString>
<coordinates>
30.451944444444443,50.401944444444446,0
2.085,41.2971,0
</coordinates>
</LineString>
</Placemark>
<Placemark>
<name>Vuelo ECHQI</name>
<LineString>
<coordinates>
30.2625,59.80027777777777,0
2.085,41.2971,0
</coordinates>
</LineString>
</Placemark>
<Placemark>
<name>Vuelo CGTSW</name>
<LineString>
<coordinates>
39.169999999999995,45.03472222222222,0
2.085,41.2971,0
</coordinates>
</LineString>
</Placemark>
<Placemark>
<name>Vuelo ECLZO</name>
<LineString>
<coordinates>
37.906388888888884,55.40861111111111,0
2.085,41.2971,0
</coordinates>
</LineString>
</Placemark>
<Placemark>
<name>Vuelo N76062</name>
<LineString>
<coordinates>
37.41305555555555,55.972500000000004,0
2.085,41.2971,0
</coordinates>
</LineString>
</Placemark>
<Placemark>
<name>Vuelo FA123</name>
<LineString>
<coordinates>
49.280277777777776,55.606944444444444,0
2.085,41.2971,0
</coordinates>
</LineString>
</Placemark>
<Placemark>
<name>Vuelo URPSS</name>
<LineString>
<coordinates>
3.9891666666666667,1.3591666666666669,0
2.085,41.2971,0
</coordinates>
</LineString>
</Placemark>
</Document>
</kml>
