<?xml version="1.0" encoding="UTF-8"?>
<kml xmlns="http://www.opengis.net/kml/2.2" xmlns:gx="http://www.google.com/kml/ext/2.2">
    <Document id="281">
        <Style id="284">
            <LabelStyle id="285">
                <color>ff0000ff</color>
                <colorMode>normal</colorMode>
                <scale>1</scale>
            </LabelStyle>
        </Style>
        <Style id="288">
            <LabelStyle id="289">
                <color>ff0000ff</color>
                <colorMode>normal</colorMode>
                <scale>1</scale>
            </LabelStyle>
        </Style>
        <Style id="292">
            <LabelStyle id="293">
                <color>ff0000ff</color>
                <colorMode>normal</colorMode>
                <scale>1</scale>
            </LabelStyle>
        </Style>
        <Style id="296">
            <LabelStyle id="297">
                <color>ff0000ff</color>
                <colorMode>normal</colorMode>
                <scale>1</scale>
            </LabelStyle>
        </Style>
        <Style id="300">
            <LabelStyle id="301">
                <color>ff0000ff</color>
                <colorMode>normal</colorMode>
                <scale>1</scale>
            </LabelStyle>
        </Style>
        <Style id="304">
            <LabelStyle id="305">
                <color>ff0000ff</color>
                <colorMode>normal</colorMode>
                <scale>1</scale>
            </LabelStyle>
        </Style>
        <Style id="308">
            <LabelStyle id="309">
                <color>ff0000ff</color>
                <colorMode>normal</colorMode>
                <scale>1</scale>
            </LabelStyle>
        </Style>
        <Style id="312">
            <LabelStyle id="313">
                <color>ff0000ff</color>
                <colorMode>normal</colorMode>
                <scale>1</scale>
            </LabelStyle>
        </Style>
        <Style id="316">
            <LabelStyle id="317">
                <color>ff0000ff</color>
                <colorMode>normal</colorMode>
                <scale>1</scale>
            </LabelStyle>
        </Style>
        <Style id="320">
            <LabelStyle id="321">
                <color>ff0000ff</color>
                <colorMode>normal</colorMode>
                <scale>1</scale>
            </LabelStyle>
        </Style>
        <Style id="324">
            <LabelStyle id="325">
                <color>ff0000ff</color>
                <colorMode>normal</colorMode>
                <scale>1</scale>
            </LabelStyle>
        </Style>
        <Style id="328">
            <LabelStyle id="329">
                <color>ff0000ff</color>
                <colorMode>normal</colorMode>
                <scale>1</scale>
            </LabelStyle>
        </Style>
        <Style id="332">
            <LabelStyle id="333">
                <color>ff0000ff</color>
                <colorMode>normal</colorMode>
                <scale>1</scale>
            </LabelStyle>
        </Style>
        <Style id="336">
            <LabelStyle id="337">
                <color>ff0000ff</color>
                <colorMode>normal</colorMode>
                <scale>1</scale>
            </LabelStyle>
        </Style>
        <Style id="340">
            <LabelStyle id="341">
                <color>ff0000ff</color>
                <colorMode>normal</colorMode>
                <scale>1</scale>
            </LabelStyle>
        </Style>
        <Style id="344">
            <LabelStyle id="345">
                <color>ff0000ff</color>
                <colorMode>normal</colorMode>
                <scale>1</scale>
            </LabelStyle>
        </Style>
        <Style id="348">
            <LabelStyle id="349">
                <color>ff0000ff</color>
                <colorMode>normal</colorMode>
                <scale>1</scale>
            </LabelStyle>
        </Style>
        <Style id="352">
            <LabelStyle id="353">
                <color>ff0000ff</color>
                <colorMode>normal</colorMode>
                <scale>1</scale>
            </LabelStyle>
        </Style>
        <Style id="356">
            <LabelStyle id="357">
                <color>ff0000ff</color>
                <colorMode>normal</colorMode>
                <scale>1</scale>
            </LabelStyle>
        </Style>
        <Style id="360">
            <LabelStyle id="361">
                <color>ff0000ff</color>
                <colorMode>normal</colorMode>
                <scale>1</scale>
            </LabelStyle>
        </Style>
        <Style id="364">
            <LabelStyle id="365">
                <color>ff0000ff</color>
                <colorMode>normal</colorMode>
                <scale>1</scale>
            </LabelStyle>
        </Style>
        <Style id="368">
            <LabelStyle id="369">
                <color>ff0000ff</color>
                <colorMode>normal</colorMode>
                <scale>1</scale>
            </LabelStyle>
        </Style>
        <Style id="372">
            <LabelStyle id="373">
                <color>ff0000ff</color>
                <colorMode>normal</colorMode>
                <scale>1</scale>
            </LabelStyle>
        </Style>
        <Style id="376">
            <LabelStyle id="377">
                <color>ff0000ff</color>
                <colorMode>normal</colorMode>
                <scale>1</scale>
            </LabelStyle>
        </Style>
        <Style id="380">
            <LabelStyle id="381">
                <color>ff0000ff</color>
                <colorMode>normal</colorMode>
                <scale>1</scale>
            </LabelStyle>
        </Style>
        <Style id="384">
            <LabelStyle id="385">
                <color>ff0000ff</color>
                <colorMode>normal</colorMode>
                <scale>1</scale>
            </LabelStyle>
        </Style>
        <Style id="388">
            <LabelStyle id="389">
                <color>ff0000ff</color>
                <colorMode>normal</colorMode>
                <scale>1</scale>
            </LabelStyle>
        </Style>
        <Style id="392">
            <LabelStyle id="393">
                <color>ff0000ff</color>
                <colorMode>normal</colorMode>
                <scale>1</scale>
            </LabelStyle>
        </Style>
        <Style id="396">
            <LabelStyle id="397">
                <color>ff0000ff</color>
                <colorMode>normal</colorMode>
                <scale>1</scale>
            </LabelStyle>
        </Style>
        <Style id="400">
            <LabelStyle id="401">
                <color>ff0000ff</color>
                <colorMode>normal</colorMode>
                <scale>1</scale>
            </LabelStyle>
        </Style>
        <Style id="404">
            <LabelStyle id="405">
                <color>ff0000ff</color>
                <colorMode>normal</colorMode>
                <scale>1</scale>
            </LabelStyle>
        </Style>
        <Style id="408">
            <LabelStyle id="409">
                <color>ff0000ff</color>
                <colorMode>normal</colorMode>
                <scale>1</scale>
            </LabelStyle>
        </Style>
        <Style id="412">
            <LabelStyle id="413">
                <color>ff0000ff</color>
                <colorMode>normal</colorMode>
                <scale>1</scale>
            </LabelStyle>
        </Style>
        <Style id="416">
            <LabelStyle id="417">
                <color>ff0000ff</color>
                <colorMode>normal</colorMode>
                <scale>1</scale>
            </LabelStyle>
        </Style>
        <Style id="420">
            <LabelStyle id="421">
                <color>ff0000ff</color>
                <colorMode>normal</colorMode>
                <scale>1</scale>
            </LabelStyle>
        </Style>
        <Style id="424">
            <LabelStyle id="425">
                <color>ff0000ff</color>
                <colorMode>normal</colorMode>
                <scale>1</scale>
            </LabelStyle>
        </Style>
        <Style id="428">
            <LabelStyle id="429">
                <color>ff0000ff</color>
                <colorMode>normal</colorMode>
                <scale>1</scale>
            </LabelStyle>
        </Style>
        <Style id="432">
            <LabelStyle id="433">
                <color>ff0000ff</color>
                <colorMode>normal</colorMode>
                <scale>1</scale>
            </LabelStyle>
        </Style>
        <Style id="436">
            <LabelStyle id="437">
                <color>ff0000ff</color>
                <colorMode>normal</colorMode>
                <scale>1</scale>
            </LabelStyle>
        </Style>
        <Style id="440">
            <LabelStyle id="441">
                <color>ff0000ff</color>
                <colorMode>normal</colorMode>
                <scale>1</scale>
            </LabelStyle>
        </Style>
        <Style id="444">
            <LabelStyle id="445">
                <color>ff0000ff</color>
                <colorMode>normal</colorMode>
                <scale>1</scale>
            </LabelStyle>
        </Style>
        <Style id="448">
            <LabelStyle id="449">
                <color>ff0000ff</color>
                <colorMode>normal</colorMode>
                <scale>1</scale>
            </LabelStyle>
        </Style>
        <Style id="452">
            <LabelStyle id="453">
                <color>ff0000ff</color>
                <colorMode>normal</colorMode>
                <scale>1</scale>
            </LabelStyle>
        </Style>
        <Style id="456">
            <LabelStyle id="457">
                <color>ff0000ff</color>
                <colorMode>normal</colorMode>
                <scale>1</scale>
            </LabelStyle>
        </Style>
        <Style id="460">
            <LabelStyle id="461">
                <color>ff0000ff</color>
                <colorMode>normal</colorMode>
                <scale>1</scale>
            </LabelStyle>
        </Style>
        <Style id="464">
            <LabelStyle id="465">
                <color>ff0000ff</color>
                <colorMode>normal</colorMode>
                <scale>1</scale>
            </LabelStyle>
        </Style>
        <Style id="468">
            <LabelStyle id="469">
                <color>ff0000ff</color>
                <colorMode>normal</colorMode>
                <scale>1</scale>
            </LabelStyle>
        </Style>
        <Style id="472">
            <LabelStyle id="473">
                <color>ff0000ff</color>
                <colorMode>normal</colorMode>
                <scale>1</scale>
            </LabelStyle>
        </Style>
        <Style id="476">
            <LabelStyle id="477">
                <color>ff0000ff</color>
                <colorMode>normal</colorMode>
                <scale>1</scale>
            </LabelStyle>
        </Style>
        <Style id="480">
            <LabelStyle id="481">
                <color>ff0000ff</color>
                <colorMode>normal</colorMode>
                <scale>1</scale>
            </LabelStyle>
        </Style>
        <Style id="484">
            <LabelStyle id="485">
                <color>ff0000ff</color>
                <colorMode>normal</colorMode>
                <scale>1</scale>
            </LabelStyle>
        </Style>
        <Style id="488">
            <LabelStyle id="489">
                <color>ff0000ff</color>
                <colorMode>normal</colorMode>
                <scale>1</scale>
            </LabelStyle>
        </Style>
        <Style id="492">
            <LabelStyle id="493">
                <color>ff0000ff</color>
                <colorMode>normal</colorMode>
                <scale>1</scale>
            </LabelStyle>
        </Style>
        <Style id="496">
            <LabelStyle id="497">
                <color>ff0000ff</color>
                <colorMode>normal</colorMode>
                <scale>1</scale>
            </LabelStyle>
        </Style>
        <Style id="500">
            <LabelStyle id="501">
                <color>ff0000ff</color>
                <colorMode>normal</colorMode>
                <scale>1</scale>
            </LabelStyle>
        </Style>
        <Style id="504">
            <LabelStyle id="505">
                <color>ff0000ff</color>
                <colorMode>normal</colorMode>
                <scale>1</scale>
            </LabelStyle>
        </Style>
        <Style id="508">
            <LabelStyle id="509">
                <color>ff0000ff</color>
                <colorMode>normal</colorMode>
                <scale>1</scale>
            </LabelStyle>
        </Style>
        <Style id="512">
            <LabelStyle id="513">
                <color>ff0000ff</color>
                <colorMode>normal</colorMode>
                <scale>1</scale>
            </LabelStyle>
        </Style>
        <Style id="516">
            <LabelStyle id="517">
                <color>ff0000ff</color>
                <colorMode>normal</colorMode>
                <scale>1</scale>
            </LabelStyle>
        </Style>
        <Style id="520">
            <LabelStyle id="521">
                <color>ff0000ff</color>
                <colorMode>normal</colorMode>
                <scale>1</scale>
            </LabelStyle>
        </Style>
        <Style id="524">
            <LabelStyle id="525">
                <color>ff0000ff</color>
                <colorMode>normal</colorMode>
                <scale>1</scale>
            </LabelStyle>
        </Style>
        <Style id="528">
            <LabelStyle id="529">
                <color>ff0000ff</color>
                <colorMode>normal</colorMode>
                <scale>1</scale>
            </LabelStyle>
        </Style>
        <Style id="532">
            <LabelStyle id="533">
                <color>ff0000ff</color>
                <colorMode>normal</colorMode>
                <scale>1</scale>
            </LabelStyle>
        </Style>
        <Style id="536">
            <LabelStyle id="537">
                <color>ff0000ff</color>
                <colorMode>normal</colorMode>
                <scale>1</scale>
            </LabelStyle>
        </Style>
        <Style id="540">
            <LabelStyle id="541">
                <color>ff0000ff</color>
                <colorMode>normal</colorMode>
                <scale>1</scale>
            </LabelStyle>
        </Style>
        <Style id="544">
            <LabelStyle id="545">
                <color>ff0000ff</color>
                <colorMode>normal</colorMode>
                <scale>1</scale>
            </LabelStyle>
        </Style>
        <Style id="548">
            <LabelStyle id="549">
                <color>ff0000ff</color>
                <colorMode>normal</colorMode>
                <scale>1</scale>
            </LabelStyle>
        </Style>
        <Style id="552">
            <LabelStyle id="553">
                <color>ff0000ff</color>
                <colorMode>normal</colorMode>
                <scale>1</scale>
            </LabelStyle>
        </Style>
        <Style id="556">
            <LabelStyle id="557">
                <color>ff0000ff</color>
                <colorMode>normal</colorMode>
                <scale>1</scale>
            </LabelStyle>
        </Style>
        <Placemark id="283">
            <name>CYUL</name>
            <styleUrl>#284</styleUrl>
            <Point id="282">
                <coordinates>-73.74138888888889,45.46805555555556,0.0</coordinates>
            </Point>
        </Placemark>
        <Placemark id="287">
            <name>CYYZ</name>
            <styleUrl>#288</styleUrl>
            <Point id="286">
                <coordinates>-79.63055555555555,43.67722222222222,0.0</coordinates>
            </Point>
        </Placemark>
        <Placemark id="291">
            <name>DAAG</name>
            <styleUrl>#292</styleUrl>
            <Point id="290">
                <coordinates>3.2144444444444447,36.693888888888885,0.0</coordinates>
            </Point>
        </Placemark>
        <Placemark id="295">
            <name>DTTA</name>
            <styleUrl>#296</styleUrl>
            <Point id="294">
                <coordinates>10.226944444444445,36.85111111111111,0.0</coordinates>
            </Point>
        </Placemark>
        <Placemark id="299">
            <name>EGAA</name>
            <styleUrl>#300</styleUrl>
            <Point id="298">
                <coordinates>-6.215833333333333,54.6575,0.0</coordinates>
            </Point>
        </Placemark>
        <Placemark id="303">
            <name>EGBB</name>
            <styleUrl>#304</styleUrl>
            <Point id="302">
                <coordinates>-1.7480555555555557,52.45388888888889,0.0</coordinates>
            </Point>
        </Placemark>
        <Placemark id="307">
            <name>EGCC</name>
            <styleUrl>#308</styleUrl>
            <Point id="306">
                <coordinates>-2.275,53.35388888888889,0.0</coordinates>
            </Point>
        </Placemark>
        <Placemark id="311">
            <name>EGFF</name>
            <styleUrl>#312</styleUrl>
            <Point id="310">
                <coordinates>-3.3433333333333333,51.39666666666667,0.0</coordinates>
            </Point>
        </Placemark>
        <Placemark id="315">
            <name>EGGD</name>
            <styleUrl>#316</styleUrl>
            <Point id="314">
                <coordinates>-2.7191666666666667,51.382777777777775,0.0</coordinates>
            </Point>
        </Placemark>
        <Placemark id="319">
            <name>EGGP</name>
            <styleUrl>#320</styleUrl>
            <Point id="318">
                <coordinates>-2.8497222222222223,53.33361111111111,0.0</coordinates>
            </Point>
        </Placemark>
        <Placemark id="323">
            <name>EGGW</name>
            <styleUrl>#324</styleUrl>
            <Point id="322">
                <coordinates>-0.3683333333333333,51.874722222222225,0.0</coordinates>
            </Point>
        </Placemark>
        <Placemark id="327">
            <name>EGHI</name>
            <styleUrl>#328</styleUrl>
            <Point id="326">
                <coordinates>-1.3566666666666667,50.95027777777778,0.0</coordinates>
            </Point>
        </Placemark>
        <Placemark id="331">
            <name>EGKK</name>
            <styleUrl>#332</styleUrl>
            <Point id="330">
                <coordinates>-0.19027777777777777,51.14805555555556,0.0</coordinates>
            </Point>
        </Placemark>
        <Placemark id="335">
            <name>EGLL</name>
            <styleUrl>#336</styleUrl>
            <Point id="334">
                <coordinates>-0.4613888888888889,51.4775,0.0</coordinates>
            </Point>
        </Placemark>
        <Placemark id="339">
            <name>EGMC</name>
            <styleUrl>#340</styleUrl>
            <Point id="338">
                <coordinates>0.6933333333333334,51.57027777777778,0.0</coordinates>
            </Point>
        </Placemark>
        <Placemark id="343">
            <name>EGNM</name>
            <styleUrl>#344</styleUrl>
            <Point id="342">
                <coordinates>-1.6608333333333332,53.86611111111111,0.0</coordinates>
            </Point>
        </Placemark>
        <Placemark id="347">
            <name>EGNT</name>
            <styleUrl>#348</styleUrl>
            <Point id="346">
                <coordinates>-1.6897222222222223,55.03805555555555,0.0</coordinates>
            </Point>
        </Placemark>
        <Placemark id="351">
            <name>EGNX</name>
            <styleUrl>#352</styleUrl>
            <Point id="350">
                <coordinates>-1.3277777777777777,52.83111111111111,0.0</coordinates>
            </Point>
        </Placemark>
        <Placemark id="355">
            <name>EGPH</name>
            <styleUrl>#356</styleUrl>
            <Point id="354">
                <coordinates>-3.3725,55.95,0.0</coordinates>
            </Point>
        </Placemark>
        <Placemark id="359">
            <name>EGPK</name>
            <styleUrl>#360</styleUrl>
            <Point id="358">
                <coordinates>-4.594444444444444,55.50944444444445,0.0</coordinates>
            </Point>
        </Placemark>
        <Placemark id="363">
            <name>EGSS</name>
            <styleUrl>#364</styleUrl>
            <Point id="362">
                <coordinates>0.23500000000000001,51.885,0.0</coordinates>
            </Point>
        </Placemark>
        <Placemark id="367">
            <name>EIDW</name>
            <styleUrl>#368</styleUrl>
            <Point id="366">
                <coordinates>-6.27,53.421388888888885,0.0</coordinates>
            </Point>
        </Placemark>
        <Placemark id="371">
            <name>ETNL</name>
            <styleUrl>#372</styleUrl>
            <Point id="370">
                <coordinates>12.278333333333334,53.91916666666666,0.0</coordinates>
            </Point>
        </Placemark>
        <Placemark id="375">
            <name>GCFV</name>
            <styleUrl>#376</styleUrl>
            <Point id="374">
                <coordinates>-13.863888888888889,28.452777777777776,0.0</coordinates>
            </Point>
        </Placemark>
        <Placemark id="379">
            <name>GCLP</name>
            <styleUrl>#380</styleUrl>
            <Point id="378">
                <coordinates>-15.386666666666667,27.931944444444447,0.0</coordinates>
            </Point>
        </Placemark>
        <Placemark id="383">
            <name>GCRR</name>
            <styleUrl>#384</styleUrl>
            <Point id="382">
                <coordinates>-13.605277777777777,28.945555555555554,0.0</coordinates>
            </Point>
        </Placemark>
        <Placemark id="387">
            <name>GCXO</name>
            <styleUrl>#388</styleUrl>
            <Point id="386">
                <coordinates>-16.341666666666665,28.482777777777777,0.0</coordinates>
            </Point>
        </Placemark>
        <Placemark id="391">
            <name>GMFF</name>
            <styleUrl>#392</styleUrl>
            <Point id="390">
                <coordinates>-4.977777777777778,33.92722222222222,0.0</coordinates>
            </Point>
        </Placemark>
        <Placemark id="395">
            <name>GMMN</name>
            <styleUrl>#396</styleUrl>
            <Point id="394">
                <coordinates>-7.581666666666666,33.36416666666667,0.0</coordinates>
            </Point>
        </Placemark>
        <Placemark id="399">
            <name>GMMX</name>
            <styleUrl>#400</styleUrl>
            <Point id="398">
                <coordinates>-8.040833333333333,31.608611111111113,0.0</coordinates>
            </Point>
        </Placemark>
        <Placemark id="403">
            <name>GMTT</name>
            <styleUrl>#404</styleUrl>
            <Point id="402">
                <coordinates>-5.921111111111111,35.73166666666667,0.0</coordinates>
            </Point>
        </Placemark>
        <Placemark id="407">
            <name>HECA</name>
            <styleUrl>#408</styleUrl>
            <Point id="406">
                <coordinates>31.413888888888888,30.11138888888889,0.0</coordinates>
            </Point>
        </Placemark>
        <Placemark id="411">
            <name>HTDA</name>
            <styleUrl>#412</styleUrl>
            <Point id="410">
                <coordinates>39.20333333333333,-6.875555555555556,0.0</coordinates>
            </Point>
        </Placemark>
        <Placemark id="415">
            <name>KATL</name>
            <styleUrl>#416</styleUrl>
            <Point id="414">
                <coordinates>-84.43333333333334,33.63333333333333,0.0</coordinates>
            </Point>
        </Placemark>
        <Placemark id="419">
            <name>KCLT</name>
            <styleUrl>#420</styleUrl>
            <Point id="418">
                <coordinates>-80.95,35.21666666666667,0.0</coordinates>
            </Point>
        </Placemark>
        <Placemark id="423">
            <name>KEWR</name>
            <styleUrl>#424</styleUrl>
            <Point id="422">
                <coordinates>-74.16833333333334,40.696666666666665,0.0</coordinates>
            </Point>
        </Placemark>
        <Placemark id="427">
            <name>KIAD</name>
            <styleUrl>#428</styleUrl>
            <Point id="426">
                <coordinates>-77.45666666666666,38.94499999999999,0.0</coordinates>
            </Point>
        </Placemark>
        <Placemark id="431">
            <name>KJFK</name>
            <styleUrl>#432</styleUrl>
            <Point id="430">
                <coordinates>-73.77833333333334,40.640277777777776,0.0</coordinates>
            </Point>
        </Placemark>
        <Placemark id="435">
            <name>KMIA</name>
            <styleUrl>#436</styleUrl>
            <Point id="434">
                <coordinates>-80.28333333333333,25.8,0.0</coordinates>
            </Point>
        </Placemark>
        <Placemark id="439">
            <name>KPHL</name>
            <styleUrl>#440</styleUrl>
            <Point id="438">
                <coordinates>-75.245,39.87,0.0</coordinates>
            </Point>
        </Placemark>
        <Placemark id="443">
            <name>KUGN</name>
            <styleUrl>#444</styleUrl>
            <Point id="442">
                <coordinates>-87.86833333333333,42.42166666666667,0.0</coordinates>
            </Point>
        </Placemark>
        <Placemark id="447">
            <name>LBSF</name>
            <styleUrl>#448</styleUrl>
            <Point id="446">
                <coordinates>23.40833333333333,42.69499999999999,0.0</coordinates>
            </Point>
        </Placemark>
        <Placemark id="451">
            <name>LDDU</name>
            <styleUrl>#452</styleUrl>
            <Point id="450">
                <coordinates>18.26833333333333,42.561388888888885,0.0</coordinates>
            </Point>
        </Placemark>
        <Placemark id="455">
            <name>LDSP</name>
            <styleUrl>#456</styleUrl>
            <Point id="454">
                <coordinates>16.298055555555557,43.538888888888884,0.0</coordinates>
            </Point>
        </Placemark>
        <Placemark id="459">
            <name>LDZA</name>
            <styleUrl>#460</styleUrl>
            <Point id="458">
                <coordinates>16.06888888888889,45.74305555555556,0.0</coordinates>
            </Point>
        </Placemark>
        <Placemark id="463">
            <name>LLBG</name>
            <styleUrl>#464</styleUrl>
            <Point id="462">
                <coordinates>34.885555555555555,32.00944444444445,0.0</coordinates>
            </Point>
        </Placemark>
        <Placemark id="467">
            <name>LRCL</name>
            <styleUrl>#468</styleUrl>
            <Point id="466">
                <coordinates>23.692222222222224,46.78916666666667,0.0</coordinates>
            </Point>
        </Placemark>
        <Placemark id="471">
            <name>LROP</name>
            <styleUrl>#472</styleUrl>
            <Point id="470">
                <coordinates>26.084999999999997,44.571111111111115,0.0</coordinates>
            </Point>
        </Placemark>
        <Placemark id="475">
            <name>LTBA</name>
            <styleUrl>#476</styleUrl>
            <Point id="474">
                <coordinates>28.81416666666667,40.976111111111116,0.0</coordinates>
            </Point>
        </Placemark>
        <Placemark id="479">
            <name>LTFJ</name>
            <styleUrl>#480</styleUrl>
            <Point id="478">
                <coordinates>29.309166666666666,40.89833333333333,0.0</coordinates>
            </Point>
        </Placemark>
        <Placemark id="483">
            <name>LUKK</name>
            <styleUrl>#484</styleUrl>
            <Point id="482">
                <coordinates>28.930833333333336,46.92777777777778,0.0</coordinates>
            </Point>
        </Placemark>
        <Placemark id="487">
            <name>LWSK</name>
            <styleUrl>#488</styleUrl>
            <Point id="486">
                <coordinates>21.62138888888889,41.961666666666666,0.0</coordinates>
            </Point>
        </Placemark>
        <Placemark id="491">
            <name>LYBE</name>
            <styleUrl>#492</styleUrl>
            <Point id="490">
                <coordinates>20.306944444444444,44.81944444444445,0.0</coordinates>
            </Point>
        </Placemark>
        <Placemark id="495">
            <name>LYTV</name>
            <styleUrl>#496</styleUrl>
            <Point id="494">
                <coordinates>18.723333333333333,42.40472222222222,0.0</coordinates>
            </Point>
        </Placemark>
        <Placemark id="499">
            <name>OLBA</name>
            <styleUrl>#500</styleUrl>
            <Point id="498">
                <coordinates>35.49,33.81916666666667,0.0</coordinates>
            </Point>
        </Placemark>
        <Placemark id="503">
            <name>OMAA</name>
            <styleUrl>#504</styleUrl>
            <Point id="502">
                <coordinates>54.65,24.433333333333334,0.0</coordinates>
            </Point>
        </Placemark>
        <Placemark id="507">
            <name>OMDB</name>
            <styleUrl>#508</styleUrl>
            <Point id="506">
                <coordinates>55.36,25.249166666666667,0.0</coordinates>
            </Point>
        </Placemark>
        <Placemark id="511">
            <name>OTHH</name>
            <styleUrl>#512</styleUrl>
            <Point id="510">
                <coordinates>51.608333333333334,25.274444444444445,0.0</coordinates>
            </Point>
        </Placemark>
        <Placemark id="515">
            <name>SAEZ</name>
            <styleUrl>#516</styleUrl>
            <Point id="514">
                <coordinates>-58.53583333333333,-34.82222222222222,0.0</coordinates>
            </Point>
        </Placemark>
        <Placemark id="519">
            <name>SBGR</name>
            <styleUrl>#520</styleUrl>
            <Point id="518">
                <coordinates>-46.47,-23.433333333333334,0.0</coordinates>
            </Point>
        </Placemark>
        <Placemark id="523">
            <name>SKBO</name>
            <styleUrl>#524</styleUrl>
            <Point id="522">
                <coordinates>-74.15,4.7,0.0</coordinates>
            </Point>
        </Placemark>
        <Placemark id="527">
            <name>UKBB</name>
            <styleUrl>#528</styleUrl>
            <Point id="526">
                <coordinates>30.893333333333334,50.344722222222224,0.0</coordinates>
            </Point>
        </Placemark>
        <Placemark id="531">
            <name>UKKK</name>
            <styleUrl>#532</styleUrl>
            <Point id="530">
                <coordinates>30.451944444444443,50.401944444444446,0.0</coordinates>
            </Point>
        </Placemark>
        <Placemark id="535">
            <name>ULLI</name>
            <styleUrl>#536</styleUrl>
            <Point id="534">
                <coordinates>30.2625,59.80027777777777,0.0</coordinates>
            </Point>
        </Placemark>
        <Placemark id="539">
            <name>URKK</name>
            <styleUrl>#540</styleUrl>
            <Point id="538">
                <coordinates>39.169999999999995,45.03472222222222,0.0</coordinates>
            </Point>
        </Placemark>
        <Placemark id="543">
            <name>UUDD</name>
            <styleUrl>#544</styleUrl>
            <Point id="542">
                <coordinates>37.906388888888884,55.40861111111111,0.0</coordinates>
            </Point>
        </Placemark>
        <Placemark id="547">
            <name>UUEE</name>
            <styleUrl>#548</styleUrl>
            <Point id="546">
                <coordinates>37.41305555555555,55.972500000000004,0.0</coordinates>
            </Point>
        </Placemark>
        <Placemark id="551">
            <name>UWKD</name>
            <styleUrl>#552</styleUrl>
            <Point id="550">
                <coordinates>49.280277777777776,55.606944444444444,0.0</coordinates>
            </Point>
        </Placemark>
        <Placemark id="555">
            <name>WSSS</name>
            <styleUrl>#556</styleUrl>
            <Point id="554">
                <coordinates>3.9891666666666667,1.3591666666666669,0.0</coordinates>
            </Point>
        </Placemark>
    </Document>
</kml>
